HST                     
1 20580U 90037B   26156.34226219  .00005266  00000+0  16530-3 0  9999
2 20580  28.4714 161.5211 0001846  24.4267 335.6416 15.30618516786751
POLAR                   
1 23802U 96013A   26156.48356777  .00000122  00000+0  00000+0 0  9994
2 23802  79.8408 227.1897 6458905 209.4848  89.1116  1.29846134144701
SWAS                    
1 25560U 98071A   26156.55238264  .00004750  00000+0  30150-3 0  9995
2 25560  69.8964 257.5209 0008779 270.4969  89.5189 15.09544209495513
CXO                     
1 25867U 99040B   26158.79821798  .00000708  00000+0  00000+0 0  9996
2 25867  55.9928 116.9568 7854200 310.2595   0.2905  0.37800379 17286
XMM-NEWTON              
1 25989U 99066A   26157.37875651  .00000096  00000+0  00000+0 0  9999
2 25989  64.5482 283.1267 4678331  65.0797   0.1118  0.50125302 22956
TERRA                   
1 25994U 99068A   26156.73279197  .00000425  00000+0  95489-4 0  9995
2 25994  97.9461 206.7327 0000845 251.4557 247.9804 14.61093881407938
CLUSTER II-FM7 (SAMBA)  
1 26410U 00041A   26156.98399886  .00004453  00000+0  00000+0 0  9992
2 26410 149.8917  48.5803 9040965 265.6480   0.0292  0.44829937 20254
CLUSTER II-FM8 (TANGO)  
1 26464U 00045B   26154.93096890  .00009075  00000+0  00000+0 0  9992
2 26464 150.1347  49.2777 9042973 266.1813   3.2525  0.44411373 20255
ODIN                    
1 26702U 01007A   26156.07744653  .00138173  00000+0  10497-2 0  9996
2 26702  97.3851 196.2749 0006301 158.1180 202.0353 15.71871760387493
TIMED                   
1 26998U 01055B   26156.56734178  .00001549  00000+0  14420-3 0  9998
2 26998  74.0681 258.4138 0000452 356.0442   4.0739 14.95266842329080
CORIOLIS                
1 27640U 03001A   26156.42950640  .00000111  00000+0  72598-4 0  9990
2 27640  98.7127 163.4938 0012886 244.9192 115.0647 14.19941605212554
SORCE                   
1 27651U 03004A   26156.18478439  .00002922  00000+0  21993-3 0  9993
2 27651  39.9921 330.1529 0018265 322.3449  37.6066 15.03645274270091
MOST                    
1 27843U 03031D   26156.45502169  .00000074  00000+0  54100-4 0  9997
2 27843  98.7044 164.3446 0008737 288.7549  71.2680 14.21320032189048
SCISAT 1                
1 27858U 03036A   26156.47543454  .00000604  00000+0  81804-4 0  9992
2 27858  73.9290 194.6124 0008711 263.3396  96.6789 14.81435691229716
SWIFT                   
1 28485U 04047A   26151.76835454  .00063707  00000+0  56852-3 0  9990
2 28485  20.5544 311.3972 0003289  74.7681 285.3128 15.66645040184289
HINODE (SOLAR-B)        
1 29479U 06041A   26156.46663955  .00000852  00000+0  15489-3 0  9990
2 29479  98.0548 172.7920 0016616 329.6832  30.3411 14.68606216 53154
SHIJIAN-6 02A (SJ-6 02A)
1 29505U 06046A   26156.67933057  .00005531  00000+0  28495-3 0  9991
2 29505  97.6361 197.6606 0003562 150.9832 209.1599 15.16801001 70526
SHIJIAN-6 02B (SJ-6 02B)
1 29506U 06046B   26156.68298941  .00001595  00000+0  12831-3 0  9992
2 29506  97.7157 185.8127 0014411  93.6506 266.6367 15.01346520 69011
FGRST (GLAST)           
1 33053U 08029A   26156.04941973  .00004308  00000+0  15974-3 0  9993
2 33053  25.5830 288.7580 0008171 180.1054 179.9483 15.23882787993983
SDO                     
1 36395U 10005A   26156.44891127 -.00000065  00000+0  00000+0 0  9998
2 36395  34.6271  86.5214 0001383  49.1368 177.8508  1.00271250 59944
CRYOSAT 2               
1 36508U 10013A   26156.70966323  .00000131  00000+0  31718-4 0  9991
2 36508  92.0347 274.5124 0002259  85.5002 274.6463 14.51895851856415
X-SAT                   
1 37389U 11015C   26156.71183977  .00000152  00000+0  81934-4 0  9997
2 37389  98.3510 134.2827 0014688  21.5984 338.5813 14.25202532786043
GCOM-W1 (SHIZUKU)       
1 38337U 12025A   26156.58635112  .00000552  00000+0  13248-3 0  9997
2 38337  98.2019  97.3179 0001855  84.4159  88.5167 14.57113568747342
NUSTAR                  
1 38358U 12031A   26156.75003471  .00007090  00000+0  38525-3 0  9992
2 38358   6.0259 119.9219 0009255 294.7130 143.0098 15.08692754  1306
NEOSSAT                 
1 39089U 13009D   26156.43248037  .00000144  00000+0  64551-4 0  9996
2 39089  98.4175 336.7450 0009809 283.0499  76.9591 14.35822247695054
BRITE-AUSTRIA           
1 39091U 13009F   26156.43695209  .00000190  00000+0  79122-4 0  9997
2 39091  98.3993 336.1638 0008963 276.1708  83.8457 14.36537301695369
IRIS                    
1 39197U 13033A   26156.44746662  .00001166  00000+0  13959-3 0  9991
2 39197  97.9336 355.7614 0024452   0.9642 359.1615 14.85860896698634
HISAKI (SPRINT-A)       
1 39253U 13049A   26156.05001856  .00000142  00000+0  10229-3 0  9997
2 39253  29.7212 281.7184 0136929 278.4998  80.0077 13.55543351629773
CASSIOPE                
1 39265U 13055A   26156.67715808  .00043453 -54781-6  48051-3 0  9993
2 39265  80.9141  80.6859 0296675 101.0154 262.4598 15.24145719665915
STSAT-3                 
1 39422U 13066G   26156.72632138  .00004358  00000+0  33070-3 0  9993
2 39422  97.6214 126.8004 0010855  75.4985 284.7443 15.02684812682486
SWARM B                 
1 39451U 13067A   26156.67685979  .00003865  00000+0  13830-3 0  9995
2 39451  87.7441 345.8145 0003411  92.5421 267.6219 15.28479374681487
